{
  "type": "Feature",
  "properties": {
    "name": "somewhere tile extract regions",
    "note": "One polygon per city. Add a polygon to extend coverage, then re-cut the extract.",
    "regions": [
      "Los Angeles — seeded, full tier (district-layered)",
      "Havana — seeded, full tier (single-level)",
      "Halifax — NOT seeded: no entry in neighbourhoods.json, so nothing renders over these tiles"
    ],
    "todo": "Halifax has no seeded neighbourhoods entry. At the next re-cut either seed it or drop its polygon. Not re-cutting for this alone — the whole extract is ~16MB, so the waste is trivial."
  },
  "geometry": {
    "type": "MultiPolygon",
    "coordinates": [
      [
        [
          [-118.62854, 33.576871],
          [-118.05, 33.576871],
          [-118.05, 34.27651],
          [-118.62854, 34.27651],
          [-118.62854, 33.576871]
        ]
      ],
      [
        [
          [-82.45, 23.03],
          [-82.28, 23.03],
          [-82.28, 23.18],
          [-82.45, 23.18],
          [-82.45, 23.03]
        ]
      ],
      [
        [
          [-63.68, 44.6],
          [-63.5, 44.6],
          [-63.5, 44.72],
          [-63.68, 44.72],
          [-63.68, 44.6]
        ]
      ]
    ]
  }
}
